[{"OBJECT_NAME":"STARLINK-5928","OBJECT_ID":"2023-037AW","EPOCH":"2026-03-09T23:05:06.145152","MEAN_MOTION":14.98332921,"ECCENTRICITY":0.00025722,"INCLINATION":69.9983,"RA_OF_ASC_NODE":263.7808,"ARG_OF_PERICENTER":278.563,"MEAN_ANOMALY":81.5237,"EPHEMERIS_TYPE":0,"CLASSIFICATION_TYPE":"U","NORAD_CAT_ID":55958,"ELEMENT_SET_NO":999,"REV_AT_EPOCH":16451,"BSTAR":3.0624736e-5,"MEAN_MOTION_DOT":2.72e-6,"MEAN_MOTION_DDOT":0},{"OBJECT_NAME":"QPS-SAR-11 (YAMATSUMI-I)","OBJECT_ID":"2025-125A","EPOCH":"2026-03-09T06:07:28.619904","MEAN_MOTION":15.00627459,"ECCENTRICITY":0.00100447,"INCLINATION":42.0098,"RA_OF_ASC_NODE":22.3823,"ARG_OF_PERICENTER":210.04,"MEAN_ANOMALY":149.985,"EPHEMERIS_TYPE":0,"CLASSIFICATION_TYPE":"U","NORAD_CAT_ID":64340,"ELEMENT_SET_NO":999,"REV_AT_EPOCH":4060,"BSTAR":0.0005738522,"MEAN_MOTION_DOT":7.204e-5,"MEAN_MOTION_DDOT":0}]
